[{"OBJECT_NAME":"STARLINK-33801","OBJECT_ID":"2025-099M","EPOCH":"2026-03-09T08:02:29.018976","MEAN_MOTION":15.27599355,"ECCENTRICITY":7.641e-5,"INCLINATION":42.9973,"RA_OF_ASC_NODE":178.0831,"ARG_OF_PERICENTER":282.6824,"MEAN_ANOMALY":77.3942,"EPHEMERIS_TYPE":0,"CLASSIFICATION_TYPE":"U","NORAD_CAT_ID":63963,"ELEMENT_SET_NO":999,"REV_AT_EPOCH":4728,"BSTAR":0.00091148224,"MEAN_MOTION_DOT":0.00024919,"MEAN_MOTION_DDOT":0},{"OBJECT_NAME":"CZ-4C R\/B","OBJECT_ID":"2022-069B","EPOCH":"2026-03-09T22:08:25.149120","MEAN_MOTION":15.31915595,"ECCENTRICITY":0.00471341,"INCLINATION":97.9961,"RA_OF_ASC_NODE":42.6953,"ARG_OF_PERICENTER":87.2467,"MEAN_ANOMALY":273.4166,"EPHEMERIS_TYPE":0,"CLASSIFICATION_TYPE":"U","NORAD_CAT_ID":52913,"ELEMENT_SET_NO":999,"REV_AT_EPOCH":20482,"BSTAR":0.00043675127,"MEAN_MOTION_DOT":0.00013855,"MEAN_MOTION_DDOT":0}]
